start=new Date('2021-12-29T00:00:00.000Z').valueOf();
sats=[{"OBJECT_TYPE":"PAYLOAD","REF_FRAME":"TEME","PERIAPSIS":"545.777","LAUNCH_DATE":"2020-08-07","MEAN_MOTION_DOT":"0.00001974","PERIOD":"95.592","REV_AT_EPOCH":"7796","MEAN_ANOMALY":"271.6062","EPOCH":"2021-12-28T20:06:25.599456","INCLINATION":"53.0525","RCS_SIZE":"LARGE","RA_OF_ASC_NODE":"163.3632","TLE_LINE1":"1 46030U 20055D   21362.83779629  .00001974  00000-0  15138-3 0  9992","OBJECT_NAME":"STARLINK-1534","TIME_SYSTEM":"UTC","SEMIMAJOR_AXIS":"6925.344","TLE_LINE2":"2 46030  53.0525 163.3632 0002068  88.5164 271.6062 15.06401502 77964","NORAD_CAT_ID":"46030","DECAY_DATE":null,"MEAN_MOTION_DDOT":"0.0000000000000","COUNTRY_CODE":"US","FILE":"3254265","SITE":"AFETR","BSTAR":"0.00015138000000","MEAN_ELEMENT_THEORY":"SGP4","OBJECT_ID":"2020-055D","MEAN_MOTION":"15.06401502","ECCENTRICITY":"0.00020680","EPHEMERIS_TYPE":"0","CENTER_NAME":"EARTH","APOAPSIS":"548.641","GP_ID":"192672449","ELEMENT_SET_NO":"999","ARG_OF_PERICENTER":"88.5164","CLASSIFICATION_TYPE":"U"},{"APOAPSIS":"549.001","CENTER_NAME":"EARTH","EPHEMERIS_TYPE":"0","ARG_OF_PERICENTER":"85.7046","CLASSIFICATION_TYPE":"U","ELEMENT_SET_NO":"999","GP_ID":"192673201","BSTAR":"0.00013709000000","MEAN_ELEMENT_THEORY":"SGP4","ECCENTRICITY":"0.00025330","OBJECT_ID":"2020-055E","MEAN_MOTION":"15.06389152","COUNTRY_CODE":"US","FILE":"3254265","SITE":"AFETR","MEAN_MOTION_DDOT":"0.0000000000000","DECAY_DATE":null,"TLE_LINE1":"1 46031U 20055E   21362.77515551  .00001760  00000-0  13709-3 0  9993","RA_OF_ASC_NODE":"163.6496","RCS_SIZE":"LARGE","NORAD_CAT_ID":"46031","TLE_LINE2":"2 46031  53.0536 163.6496 0002533  85.7046 274.4232 15.06389152 77981","SEMIMAJOR_AXIS":"6925.382","TIME_SYSTEM":"UTC","OBJECT_NAME":"STARLINK-1544","EPOCH":"2021-12-28T18:36:13.436064","INCLINATION":"53.0536","REV_AT_EPOCH":"7798","MEAN_ANOMALY":"274.4232","REF_FRAME":"TEME","OBJECT_TYPE":"PAYLOAD","PERIOD":"95.593","MEAN_MOTION_DOT":"0.00001760","LAUNCH_DATE":"2020-08-07","PERIAPSIS":"545.493"},{"MEAN_MOTION_DOT":"0.00001949","PERIOD":"95.591","LAUNCH_DATE":"2020-08-07","PERIAPSIS":"545.569","OBJECT_TYPE":"PAYLOAD","REF_FRAME":"TEME","MEAN_ANOMALY":"267.6335","REV_AT_EPOCH":"7801","INCLINATION":"53.0528","EPOCH":"2021-12-28T20:54:11.960928","TLE_LINE2":"2 46032  53.0528 163.2144 0002329  92.4921 267.6335 15.06410342 78018","NORAD_CAT_ID":"46032","SEMIMAJOR_AXIS":"6925.317","OBJECT_NAME":"STARLINK-1555","TIME_SYSTEM":"UTC","RCS_SIZE":"LARGE","TLE_LINE1":"1 46032U 20055F   21362.87097177  .00001949  00000-0  14967-3 0  9990","RA_OF_ASC_NODE":"163.2144","MEAN_MOTION_DDOT":"0.0000000000000","DECAY_DATE":null,"FILE":"3254265","SITE":"AFETR","COUNTRY_CODE":"US","OBJECT_ID":"2020-055F","MEAN_MOTION":"15.06410342","ECCENTRICITY":"0.00023290","BSTAR":"0.00014967000000","MEAN_ELEMENT_THEORY":"SGP4","ELEMENT_SET_NO":"999","ARG_OF_PERICENTER":"92.4921","CLASSIFICATION_TYPE":"U","GP_ID":"192673952","EPHEMERIS_TYPE":"0","CENTER_NAME":"EARTH","APOAPSIS":"548.795"},{"MEAN_MOTION_DDOT":"0.0000000000000","DECAY_DATE":null,"FILE":"3254265","SITE":"AFETR","COUNTRY_CODE":"US","ECCENTRICITY":"0.00022290","OBJECT_ID":"2020-055G","MEAN_MOTION":"15.06410794","BSTAR":"0.00012053000000","MEAN_ELEMENT_THEORY":"SGP4","ARG_OF_PERICENTER":"91.1725","CLASSIFICATION_TYPE":"U","ELEMENT_SET_NO":"999","GP_ID":"192672200","CENTER_NAME":"EARTH","APOAPSIS":"548.724","EPHEMERIS_TYPE":"0","PERIOD":"95.591","MEAN_MOTION_DOT":"0.00001514","PERIAPSIS":"545.637","LAUNCH_DATE":"2020-08-07","REF_FRAME":"TEME","OBJECT_TYPE":"PAYLOAD","MEAN_ANOMALY":"268.9520","REV_AT_EPOCH":"7798","INCLINATION":"53.0540","EPOCH":"2021-12-28T20:27:38.862432","TLE_LINE2":"2 46033  53.0540 163.3043 0002229  91.1725 268.9520 15.06410794 77985","SEMIMAJOR_AXIS":"6925.315","NORAD_CAT_ID":"46033","OBJECT_NAME":"STARLINK-1556","TIME_SYSTEM":"UTC","RA_OF_ASC_NODE":"163.3043","TLE_LINE1":"1 46033U 20055G   21362.85253313  .00001514  00000-0  12053-3 0  9997","RCS_SIZE":"LARGE"},{"REV_AT_EPOCH":"7798","MEAN_ANOMALY":"270.0933","OBJECT_TYPE":"PAYLOAD","REF_FRAME":"TEME","MEAN_MOTION_DOT":"0.00001299","PERIOD":"95.592","PERIAPSIS":"545.601","LAUNCH_DATE":"2020-08-07","RCS_SIZE":"LARGE","TLE_LINE1":"1 46034U 20055H   21362.85622047  .00001299  00000-0  10610-3 0  9999","RA_OF_ASC_NODE":"163.2969","NORAD_CAT_ID":"46034","TLE_LINE2":"2 46034  53.0539 163.2969 0002297  90.0319 270.0933 15.06407035 77988","SEMIMAJOR_AXIS":"6925.327","TIME_SYSTEM":"UTC","OBJECT_NAME":"STARLINK-1557","EPOCH":"2021-12-28T20:32:57.448608","INCLINATION":"53.0539","COUNTRY_CODE":"US","FILE":"3254265","SITE":"AFETR","MEAN_MOTION_DDOT":"0.0000000000000","DECAY_DATE":null,"EPHEMERIS_TYPE":"0","CENTER_NAME":"EARTH","APOAPSIS":"548.783","ELEMENT_SET_NO":"999","CLASSIFICATION_TYPE":"U","ARG_OF_PERICENTER":"90.0319","GP_ID":"192672950","BSTAR":"0.00010610000000","MEAN_ELEMENT_THEORY":"SGP4","MEAN_MOTION":"15.06407035","OBJECT_ID":"2020-055H","ECCENTRICITY":"0.00022970"},{"COUNTRY_CODE":"US","SITE":"AFETR","FILE":"3254265","MEAN_MOTION_DDOT":"0.0000000000000","DECAY_DATE":null,"APOAPSIS":"548.988","CENTER_NAME":"EARTH","EPHEMERIS_TYPE":"0","CLASSIFICATION_TYPE":"U","ARG_OF_PERICENTER":"91.6913","ELEMENT_SET_NO":"999","GP_ID":"192673702","BSTAR":"0.00011263000000","MEAN_ELEMENT_THEORY":"SGP4","ECCENTRICITY":"0.00025780","OBJECT_ID":"2020-055J","MEAN_MOTION":"15.06403642","REV_AT_EPOCH":"7801","MEAN_ANOMALY":"268.4372","REF_FRAME":"TEME","OBJECT_TYPE":"PAYLOAD","PERIOD":"95.592","MEAN_MOTION_DOT":"0.00001396","LAUNCH_DATE":"2020-08-07","PERIAPSIS":"545.417","TLE_LINE1":"1 46035U 20055J   21362.86359413  .00001396  00000-0  11263-3 0  9998","RA_OF_ASC_NODE":"163.2498","RCS_SIZE":"LARGE","TLE_LINE2":"2 46035  53.0531 163.2498 0002578  91.6913 268.4372 15.06403642 78010","SEMIMAJOR_AXIS":"6925.337","NORAD_CAT_ID":"46035","TIME_SYSTEM":"UTC","OBJECT_NAME":"STARLINK-1558","EPOCH":"2021-12-28T20:43:34.532832","INCLINATION":"53.0531"},{"COUNTRY_CODE":"US","FILE":"3254265","SITE":"AFETR","MEAN_MOTION_DDOT":"0.0000000000000","DECAY_DATE":null,"EPHEMERIS_TYPE":"0","CENTER_NAME":"EARTH","APOAPSIS":"548.711","ELEMENT_SET_NO":"999","ARG_OF_PERICENTER":"91.3922","CLASSIFICATION_TYPE":"U","GP_ID":"192673452","BSTAR":"0.00000959900000","MEAN_ELEMENT_THEORY":"SGP4","OBJECT_ID":"2020-055K","MEAN_MOTION":"15.06394010","ECCENTRICITY":"0.00021360","REV_AT_EPOCH":"7801","MEAN_ANOMALY":"268.7312","OBJECT_TYPE":"PAYLOAD","REF_FRAME":"TEME","MEAN_MOTION_DOT":"-0.00000139","PERIOD":"95.593","PERIAPSIS":"545.753","LAUNCH_DATE":"2020-08-07","RCS_SIZE":"LARGE","RA_OF_ASC_NODE":"163.3124","TLE_LINE1":"1 46036U 20055K   21362.84885323 -.00000139  00000-0  95990-5 0  9997","NORAD_CAT_ID":"46036","TLE_LINE2":"2 46036  53.0528 163.3124 0002136  91.3922 268.7312 15.06394010 78016","SEMIMAJOR_AXIS":"6925.367","TIME_SYSTEM":"UTC","OBJECT_NAME":"STARLINK-1560","EPOCH":"2021-12-28T20:22:20.919072","INCLINATION":"53.0528"},{"OBJECT_ID":"2020-055L","MEAN_MOTION":"15.06408212","ECCENTRICITY":"0.00023980","BSTAR":"0.00010080000000","MEAN_ELEMENT_THEORY":"SGP4","GP_ID":"192672701","ELEMENT_SET_NO":"999","CLASSIFICATION_TYPE":"U","ARG_OF_PERICENTER":"90.9649","EPHEMERIS_TYPE":"0","CENTER_NAME":"EARTH","APOAPSIS":"548.849","DECAY_DATE":null,"MEAN_MOTION_DDOT":"0.0000000000000","SITE":"AFETR","FILE":"3254265","COUNTRY_CODE":"US","INCLINATION":"53.0543","EPOCH":"2021-12-28T18:41:29.952096","OBJECT_NAME":"STARLINK-1565","TIME_SYSTEM":"UTC","NORAD_CAT_ID":"46037","TLE_LINE2":"2 46037  53.0543 163.6443 0002398  90.9649 269.1614 15.06408212 77998","SEMIMAJOR_AXIS":"6925.323","RCS_SIZE":"LARGE","RA_OF_ASC_NODE":"163.6443","TLE_LINE1":"1 46037U 20055L   21362.77881889  .00001220  00000-0  10080-3 0  9999","LAUNCH_DATE":"2020-08-07","PERIAPSIS":"545.528","MEAN_MOTION_DOT":"0.00001220","PERIOD":"95.592","OBJECT_TYPE":"PAYLOAD","REF_FRAME":"TEME","MEAN_ANOMALY":"269.1614","REV_AT_EPOCH":"7799"},{"REV_AT_EPOCH":"7800","MEAN_ANOMALY":"266.9011","OBJECT_TYPE":"PAYLOAD","REF_FRAME":"TEME","PERIAPSIS":"545.245","LAUNCH_DATE":"2020-08-07","MEAN_MOTION_DOT":"0.00002213","PERIOD":"95.592","RCS_SIZE":"LARGE","TLE_LINE1":"1 46038U 20055M   21362.85993354  .00002213  00000-0  16743-3 0  9995","RA_OF_ASC_NODE":"163.2802","TIME_SYSTEM":"UTC","OBJECT_NAME":"STARLINK-1567","TLE_LINE2":"2 46038  53.0542 163.2802 0002813  93.2300 266.9011 15.06406563 78001","SEMIMAJOR_AXIS":"6925.328","NORAD_CAT_ID":"46038","EPOCH":"2021-12-28T20:38:18.257856","INCLINATION":"53.0542","COUNTRY_CODE":"US","SITE":"AFETR","FILE":"3254265","DECAY_DATE":null,"MEAN_MOTION_DDOT":"0.0000000000000","EPHEMERIS_TYPE":"0","APOAPSIS":"549.142","CENTER_NAME":"EARTH","GP_ID":"192672450","ELEMENT_SET_NO":"999","ARG_OF_PERICENTER":"93.2300","CLASSIFICATION_TYPE":"U","BSTAR":"0.00016743000000","MEAN_ELEMENT_THEORY":"SGP4","OBJECT_ID":"2020-055M","MEAN_MOTION":"15.06406563","ECCENTRICITY":"0.00028130"},{"MEAN_ELEMENT_THEORY":"SGP4","BSTAR":"0.00011406000000","ECCENTRICITY":"0.00023540","OBJECT_ID":"2020-055N","MEAN_MOTION":"15.06407627","CENTER_NAME":"EARTH","APOAPSIS":"548.820","EPHEMERIS_TYPE":"0","GP_ID":"192673202","CLASSIFICATION_TYPE":"U","ARG_OF_PERICENTER":"92.6831","ELEMENT_SET_NO":"999","DECAY_DATE":null,"MEAN_MOTION_DDOT":"0.0000000000000","COUNTRY_CODE":"US","FILE":"3254265","SITE":"AFETR","EPOCH":"2021-12-28T20:48:52.975584","INCLINATION":"53.0540","TLE_LINE1":"1 46039U 20055N   21362.86727981  .00001418  00000-0  11406-3 0  9995","RA_OF_ASC_NODE":"163.2468","RCS_SIZE":"LARGE","OBJECT_NAME":"STARLINK-1569","TIME_SYSTEM":"UTC","TLE_LINE2":"2 46039  53.0540 163.2468 0002354  92.6831 267.4427 15.06407627 78009","SEMIMAJOR_AXIS":"6925.325","NORAD_CAT_ID":"46039","REF_FRAME":"TEME","OBJECT_TYPE":"PAYLOAD","PERIAPSIS":"545.560","LAUNCH_DATE":"2020-08-07","PERIOD":"95.592","MEAN_MOTION_DOT":"0.00001418","REV_AT_EPOCH":"7800","MEAN_ANOMALY":"267.4427"}];
